ONEWEB-0545             
1 54647U 22166F   25279.07749825  .00000077  00000+0  15556-3 0  9998
2 54647  87.9171 294.6943 0001516  79.4107 280.7197 13.21824484137933
ONEWEB-0580             
1 54648U 22166G   25279.05068611  .00000009  00000+0 -10351-4 0  9999
2 54648  87.9172 294.6980 0001843  80.4603 279.6739 13.21826553137974
ONEWEB-0582             
1 54649U 22166H   25279.09327449  .00000109  00000+0  23212-3 0  9990
2 54649  87.9171 294.6824 0001794  76.5752 283.5582 13.21824899137956
ONEWEB-0583             
1 54650U 22166J   25279.10431601 -.00000006  00000+0 -45188-4 0  9995
2 54650  87.9173 294.7059 0001769  88.6712 271.4624 13.21825359137969
ONEWEB-0584             
1 54651U 22166K   25279.04911059 -.00000011  00000+0 -58294-4 0  9997
2 54651  87.9173 294.7019 0001921  80.1602 279.9749 13.21825960137948
ONEWEB-0585             
1 54652U 22166L   25279.07434821  .00000145  00000+0  31917-3 0  9996
2 54652  87.9170 294.6825 0001968  94.9951 265.1407 13.21824959137957
ONEWEB-0586             
1 54653U 22166M   25279.08696396  .00000034  00000+0  51805-4 0  9991
2 54653  87.9173 294.7049 0001754  87.6572 272.4762 13.21826152137953
ONEWEB-0587             
1 54654U 22166N   25279.09641492  .00000024  00000+0  27353-4 0  9990
2 54654  87.9182 294.6522 0002123 101.6501 258.4871 13.21827034138113
